{
  "type": "FeatureCollection",
  "features": [
    {
      "type": "Feature",
      "properties": {
        "norad_id": 37867,
        "name": "COSMOS 2476 (744)",
        "group": "glo-ops",
        "lat": 25.530360246503196,
        "lon": 92.03541405200339,
        "alt_km": 19182.305249673223,
        "timestamp": "2025-12-09T21:34:11.668704+00:00",
        "meta_object_name": "COSMOS 2476 (744)",
        "meta_object_id": "2011-064A",
        "meta_epoch": "2025-12-09T09:41:55.720032",
        "meta_mean_motion": 2.13101239,
        "meta_eccentricity": 0.0023895,
        "meta_inclination": 65.1605,
        "meta_ra_of_asc_node": 79.2843,
        "meta_arg_of_pericenter": 233.5536,
        "meta_mean_anomaly": 135.2332,
        "meta_ephemeris_type": 0,
        "meta_classification_type": "U",
        "meta_norad_cat_id": 37867,
        "meta_element_set_no": 999,
        "meta_rev_at_epoch": 10972,
        "meta_bstar": 0,
        "meta_mean_motion_dot": -1.4e-07,
        "meta_mean_motion_ddot": 0,
        "tle_line1": "1 37867U 11064A   25343.40411713 -.00000014  00000+0  00000+0 0  9995",
        "tle_line2": "2 37867  65.1605  79.2843 0023895 233.5536 135.2332  2.13101239109723"
      },
      "geometry": {
        "type": "Point",
        "coordinates": [
          92.03541405200339,
          25.530360246503196
        ]
      }
    },
    {
      "type": "Feature",
      "properties": {
        "norad_id": 37868,
        "name": "COSMOS 2477 (745)",
        "group": "glo-ops",
        "lat": -26.19746646528718,
        "lon": -87.49988545157113,
        "alt_km": 19084.803532559086,
        "timestamp": "2025-12-09T21:34:11.668715+00:00",
        "meta_object_name": "COSMOS 2477 (745)",
        "meta_object_id": "2011-064B",
        "meta_epoch": "2025-12-09T06:11:12.657696",
        "meta_mean_motion": 2.13102656,
        "meta_eccentricity": 0.0021072,
        "meta_inclination": 65.167,
        "meta_ra_of_asc_node": 79.367,
        "meta_arg_of_pericenter": 234.1716,
        "meta_mean_anomaly": 203.2692,
        "meta_ephemeris_type": 0,
        "meta_classification_type": "U",
        "meta_norad_cat_id": 37868,
        "meta_element_set_no": 999,
        "meta_rev_at_epoch": 10971,
        "meta_bstar": 0,
        "meta_mean_motion_dot": -1.4e-07,
        "meta_mean_motion_ddot": 0,
        "tle_line1": "1 37868U 11064B   25343.25778539 -.00000014  00000+0  00000+0 0  9991",
        "tle_line2": "2 37868  65.1670  79.3670 0021072 234.1716 203.2692  2.13102656109715"
      },
      "geometry": {
        "type": "Point",
        "coordinates": [
          -87.49988545157113,
          -26.19746646528718
        ]
      }
    },
    {
      "type": "Feature",
      "properties": {
        "norad_id": 37869,
        "name": "COSMOS 2475 (743)",
        "group": "glo-ops",
        "lat": 13.705187035043004,
        "lon": -107.10066624407739,
        "alt_km": 19120.827141518785,
        "timestamp": "2025-12-09T21:34:11.668728+00:00",
        "meta_object_name": "COSMOS 2475 (743)",
        "meta_object_id": "2011-064C",
        "meta_epoch": "2025-12-09T06:02:05.700768",
        "meta_mean_motion": 2.13101306,
        "meta_eccentricity": 0.0026081,
        "meta_inclination": 65.1742,
        "meta_ra_of_asc_node": 79.3871,
        "meta_arg_of_pericenter": 248.2695,
        "meta_mean_anomaly": 140.2782,
        "meta_ephemeris_type": 0,
        "meta_classification_type": "U",
        "meta_norad_cat_id": 37869,
        "meta_element_set_no": 999,
        "meta_rev_at_epoch": 10972,
        "meta_bstar": 0,
        "meta_mean_motion_dot": -1.3e-07,
        "meta_mean_motion_ddot": 0,
        "tle_line1": "1 37869U 11064C   25343.25145487 -.00000013  00000+0  00000+0 0  9991",
        "tle_line2": "2 37869  65.1742  79.3871 0026081 248.2695 140.2782  2.13101306109728"
      },
      "geometry": {
        "type": "Point",
        "coordinates": [
          -107.10066624407739,
          13.705187035043004
        ]
      }
    },
    {
      "type": "Feature",
      "properties": {
        "norad_id": 39155,
        "name": "COSMOS 2485 (747)",
        "group": "glo-ops",
        "lat": 62.05327877549763,
        "lon": 139.9363811548601,
        "alt_km": 19178.685078499508,
        "timestamp": "2025-12-09T21:34:11.668739+00:00",
        "meta_object_name": "COSMOS 2485 (747)",
        "meta_object_id": "2013-019A",
        "meta_epoch": "2025-12-09T07:54:23.489856",
        "meta_mean_motion": 2.13102865,
        "meta_eccentricity": 0.00245518,
        "meta_inclination": 65.3117,
        "meta_ra_of_asc_node": 79.9821,
        "meta_arg_of_pericenter": 229.1035,
        "meta_mean_anomaly": 130.7003,
        "meta_ephemeris_type": 0,
        "meta_classification_type": "U",
        "meta_norad_cat_id": 39155,
        "meta_element_set_no": 999,
        "meta_rev_at_epoch": 9823,
        "meta_bstar": 0,
        "meta_mean_motion_dot": -1.3e-07,
        "meta_mean_motion_ddot": 0,
        "tle_line1": "1 39155U 13019A   25343.32943854 -.00000013  00000+0  00000+0 0  9995",
        "tle_line2": "2 39155  65.3117  79.9821 0024551 229.1035 130.7003  2.13102865 98237"
      },
      "geometry": {
        "type": "Point",
        "coordinates": [
          139.9363811548601,
          62.05327877549763
        ]
      }
    },
    {
      "type": "Feature",
      "properties": {
        "norad_id": 39620,
        "name": "COSMOS 2492 (754)",
        "group": "glo-ops",
        "lat": 59.573817825001626,
        "lon": 89.14069614217641,
        "alt_km": 19156.816280610623,
        "timestamp": "2025-12-09T21:34:11.668751+00:00",
        "meta_object_name": "COSMOS 2492 (754)",
        "meta_object_id": "2014-012A",
        "meta_epoch": "2025-12-09T06:54:46.186848",
        "meta_mean_motion": 2.13102988,
        "meta_eccentricity": 0.00142075,
        "meta_inclination": 65.4097,
        "meta_ra_of_asc_node": 320.3884,
        "meta_arg_of_pericenter": 310.998,
        "meta_mean_anomaly": 48.8757,
        "meta_ephemeris_type": 0,
        "meta_classification_type": "U",
        "meta_norad_cat_id": 39620,
        "meta_element_set_no": 999,
        "meta_rev_at_epoch": 9119,
        "meta_bstar": 0,
        "meta_mean_motion_dot": -4.9e-07,
        "meta_mean_motion_ddot": 0,
        "tle_line1": "1 39620U 14012A   25343.28803457 -.00000049  00000+0  00000+0 0  9994",
        "tle_line2": "2 39620  65.4097 320.3884 0014207 310.9980  48.8757  2.13102988 91198"
      },
      "geometry": {
        "type": "Point",
        "coordinates": [
          89.14069614217641,
          59.573817825001626
        ]
      }
    },
    {
      "type": "Feature",
      "properties": {
        "norad_id": 40001,
        "name": "COSMOS 2500 (755)",
        "group": "glo-ops",
        "lat": -21.331963801046413,
        "lon": -50.21218414674566,
        "alt_km": 19142.442872996697,
        "timestamp": "2025-12-09T21:34:11.668762+00:00",
        "meta_object_name": "COSMOS 2500 (755)",
        "meta_object_id": "2014-032A",
        "meta_epoch": "2025-12-09T11:02:48.490944",
        "meta_mean_motion": 2.13105796,
        "meta_eccentricity": 0.00083097,
        "meta_inclination": 65.3451,
        "meta_ra_of_asc_node": 320.1442,
        "meta_arg_of_pericenter": 219.1348,
        "meta_mean_anomaly": 140.802,
        "meta_ephemeris_type": 0,
        "meta_classification_type": "U",
        "meta_norad_cat_id": 40001,
        "meta_element_set_no": 999,
        "meta_rev_at_epoch": 8941,
        "meta_bstar": 0,
        "meta_mean_motion_dot": -4.9e-07,
        "meta_mean_motion_ddot": 0,
        "tle_line1": "1 40001U 14032A   25343.46028346 -.00000049  00000+0  00000+0 0  9997",
        "tle_line2": "2 40001  65.3451 320.1442 0008309 219.1348 140.8020  2.13105796 89416"
      },
      "geometry": {
        "type": "Point",
        "coordinates": [
          -50.21218414674566,
          -21.331963801046413
        ]
      }
    },
    {
      "type": "Feature",
      "properties": {
        "norad_id": 40315,
        "name": "COSMOS 2501 (702K)",
        "group": "glo-ops",
        "lat": 37.74761932501706,
        "lon": -5.677084350774339,
        "alt_km": 19105.95774247683,
        "timestamp": "2025-12-09T21:34:11.668774+00:00",
        "meta_object_name": "COSMOS 2501 (702K)",
        "meta_object_id": "2014-075A",
        "meta_epoch": "2025-12-07T20:13:51.362112",
        "meta_mean_motion": 2.13101338,
        "meta_eccentricity": 0.00201356,
        "meta_inclination": 63.6139,
        "meta_ra_of_asc_node": 196.9947,
        "meta_arg_of_pericenter": 204.4913,
        "meta_mean_anomaly": 155.4908,
        "meta_ephemeris_type": 0,
        "meta_classification_type": "U",
        "meta_norad_cat_id": 40315,
        "meta_element_set_no": 999,
        "meta_rev_at_epoch": 8577,
        "meta_bstar": 0,
        "meta_mean_motion_dot": 5.4e-07,
        "meta_mean_motion_ddot": 0,
        "tle_line1": "1 40315U 14075A   25341.84295558  .00000054  00000+0  00000+0 0  9998",
        "tle_line2": "2 40315  63.6139 196.9947 0020135 204.4913 155.4908  2.13101338 85773"
      },
      "geometry": {
        "type": "Point",
        "coordinates": [
          -5.677084350774339,
          37.74761932501706
        ]
      }
    }
  ]
}